{"type": "FeatureCollection", "features": [ {"type": "Feature", "properties": {"norad_id": 66517, "name": "STARLINK-35937", "group": "last-30-days", "lat": -24.805841277897848, "lon": 82.23649370178937, "alt_km": 346.17452277499524, "timestamp": "2025-12-02T23:34:14.291246+00:00", "meta": {"OBJECT_NAME": "STARLINK-35937", "OBJECT_ID": "2025-265B", "EPOCH": "2025-12-02T12:00:05.998752", "MEAN_MOTION": 15.74969221, "ECCENTRICITY": 0.000163, "INCLINATION": 42.9992, "RA_OF_ASC_NODE": 114.8983, "ARG_OF_PERICENTER": 253.928, "MEAN_ANOMALY": 211.5591, "EPHEMERIS_TYPE": 0, "CLASSIFICATION_TYPE": "U", "NORAD_CAT_ID": 66517, "ELEMENT_SET_NO": 999, "REV_AT_EPOCH": 334, "BSTAR": 0.00097436, "MEAN_MOTION_DOT": 0.00151445, "MEAN_MOTION_DDOT": 0}, "tle": {"line1": "1 66517U 25265B   25336.50006943  .00151445  00000+0  97436-3 0  9992", "line2": "2 66517  42.9992 114.8983 0001630 253.9280 211.5591 15.74969221  3345"}}, "geometry": {"type": "Point", "coordinates": [82.23649370178937, -24.805841277897848]}}, {"type": "Feature", "properties": {"norad_id": 66518, "name": "STARLINK-35962", "group": "last-30-days", "lat": -23.631126298759675, "lon": 83.96164968224059, "alt_km": 346.0879993089229, "timestamp": "2025-12-02T23:34:14.291257+00:00", "meta": {"OBJECT_NAME": "STARLINK-35962", "OBJECT_ID": "2025-265C", "EPOCH": "2025-12-02T12:00:05.998752", "MEAN_MOTION": 15.75030131, "ECCENTRICITY": 0.0001924, "INCLINATION": 42.9989, "RA_OF_ASC_NODE": 114.8927, "ARG_OF_PERICENTER": 263.003, "MEAN_ANOMALY": 204.4675, "EPHEMERIS_TYPE": 0, "CLASSIFICATION_TYPE": "U", "NORAD_CAT_ID": 66518, "ELEMENT_SET_NO": 999, "REV_AT_EPOCH": 334, "BSTAR": 2.2237e-05, "MEAN_MOTION_DOT": 2.938e-05, "MEAN_MOTION_DDOT": 0}, "tle": {"line1": "1 66518U 25265C   25336.50006943  .00002938  00000+0  22237-4 0  9993", "line2": "2 66518  42.9989 114.8927 0001924 263.0030 204.4675 15.75030131  3345"}}, "geometry": {"type": "Point", "coordinates": [83.96164968224059, -23.631126298759675]}}, {"type": "Feature", "properties": {"norad_id": 66519, "name": "STARLINK-35931", "group": "last-30-days", "lat": -22.46337284965022, "lon": 85.6208546355865, "alt_km": 346.0966024304835, "timestamp": "2025-12-02T23:34:14.291267+00:00", "meta": {"OBJECT_NAME": "STARLINK-35931", "OBJECT_ID": "2025-265D", "EPOCH": "2025-12-02T12:00:05.998752", "MEAN_MOTION": 15.75039299, "ECCENTRICITY": 0.0001738, "INCLINATION": 42.9992, "RA_OF_ASC_NODE": 114.8878, "ARG_OF_PERICENTER": 260.544, "MEAN_ANOMALY": 208.8337, "EPHEMERIS_TYPE": 0, "CLASSIFICATION_TYPE": "U", "NORAD_CAT_ID": 66519, "ELEMENT_SET_NO": 999, "REV_AT_EPOCH": 334, "BSTAR": 6.3277e-05, "MEAN_MOTION_DOT": 9.253e-05, "MEAN_MOTION_DDOT": 0}, "tle": {"line1": "1 66519U 25265D   25336.50006943  .00009253  00000+0  63277-4 0  9990", "line2": "2 66519  42.9992 114.8878 0001738 260.5440 208.8337 15.75039299  3342"}}, "geometry": {"type": "Point", "coordinates": [85.6208546355865, -22.46337284965022]}}, {"type": "Feature", "properties": {"norad_id": 66520, "name": "STARLINK-35952", "group": "last-30-days", "lat": -21.294123484316987, "lon": 87.22983231666431, "alt_km": 346.0247345689113, "timestamp": "2025-12-02T23:34:14.291277+00:00", "meta": {"OBJECT_NAME": "STARLINK-35952", "OBJECT_ID": "2025-265E", "EPOCH": "2025-12-02T12:00:05.998752", "MEAN_MOTION": 15.74972071, "ECCENTRICITY": 0.0001381, "INCLINATION": 42.999, "RA_OF_ASC_NODE": 114.8818, "ARG_OF_PERICENTER": 268.6658, "MEAN_ANOMALY": 202.6757, "EPHEMERIS_TYPE": 0, "CLASSIFICATION_TYPE": "U", "NORAD_CAT_ID": 66520, "ELEMENT_SET_NO": 999, "REV_AT_EPOCH": 334, "BSTAR": 0.00053077, "MEAN_MOTION_DOT": 0.00081604, "MEAN_MOTION_DDOT": 0}, "tle": {"line1": "1 66520U 25265E   25336.50006943  .00081604  00000+0  53077-3 0  9998", "line2": "2 66520  42.9990 114.8818 0001381 268.6658 202.6757 15.74972071  3341"}}, "geometry": {"type": "Point", "coordinates": [87.22983231666431, -21.294123484316987]}}, {"type": "Feature", "properties": {"norad_id": 66521, "name": "STARLINK-35915", "group": "last-30-days", "lat": -20.103757915172608, "lon": 88.82292004343101, "alt_km": 346.12827453441787, "timestamp": "2025-12-02T23:34:14.291286+00:00", "meta": {"OBJECT_NAME": "STARLINK-35915", "OBJECT_ID": "2025-265F", "EPOCH": "2025-12-02T12:00:05.998752", "MEAN_MOTION": 15.74966701, "ECCENTRICITY": 0.0001446, "INCLINATION": 42.9989, "RA_OF_ASC_NODE": 114.8776, "ARG_OF_PERICENTER": 263.0246, "MEAN_ANOMALY": 210.2682, "EPHEMERIS_TYPE": 0, "CLASSIFICATION_TYPE": "U", "NORAD_CAT_ID": 66521, "ELEMENT_SET_NO": 999, "REV_AT_EPOCH": 334, "BSTAR": 0.00028097, "MEAN_MOTION_DOT": 0.00042764, "MEAN_MOTION_DDOT": 0}, "tle": {"line1": "1 66521U 25265F   25336.50006943  .00042764  00000+0  28097-3 0  9997", "line2": "2 66521  42.9989 114.8776 0001446 263.0246 210.2682 15.74966701  3342"}}, "geometry": {"type": "Point", "coordinates": [88.82292004343101, -20.103757915172608]}}, {"type": "Feature", "properties": {"norad_id": 66522, "name": "STARLINK-35946", "group": "last-30-days", "lat": -18.895101736179488, "lon": 90.39657131410328, "alt_km": 346.0180687540478, "timestamp": "2025-12-02T23:34:14.291298+00:00", "meta": {"OBJECT_NAME": "STARLINK-35946", "OBJECT_ID": "2025-265G", "EPOCH": "2025-12-02T12:00:05.998752", "MEAN_MOTION": 15.75074909, "ECCENTRICITY": 0.0001512, "INCLINATION": 42.9989, "RA_OF_ASC_NODE": 114.8731, "ARG_OF_PERICENTER": 265.907, "MEAN_ANOMALY": 209.2187, "EPHEMERIS_TYPE": 0, "CLASSIFICATION_TYPE": "U", "NORAD_CAT_ID": 66522, "ELEMENT_SET_NO": 999, "REV_AT_EPOCH": 334, "BSTAR": -0.00052741, "MEAN_MOTION_DOT": -0.00080846, "MEAN_MOTION_DDOT": 0}, "tle": {"line1": "1 66522U 25265G   25336.50006943 -.00080846  00000+0 -52741-3 0  9996", "line2": "2 66522  42.9989 114.8731 0001512 265.9070 209.2187 15.75074909  3343"}}, "geometry": {"type": "Point", "coordinates": [90.39657131410328, -18.895101736179488]}}, {"type": "Feature", "properties": {"norad_id": 66523, "name": "STARLINK-35969", "group": "last-30-days", "lat": -17.66531138351642, "lon": 91.9576738190032, "alt_km": 345.706569363515, "timestamp": "2025-12-02T23:34:14.291308+00:00", "meta": {"OBJECT_NAME": "STARLINK-35969", "OBJECT_ID": "2025-265H", "EPOCH": "2025-12-02T12:00:05.998752", "MEAN_MOTION": 15.75059406, "ECCENTRICITY": 0.0001463, "INCLINATION": 42.9991, "RA_OF_ASC_NODE": 114.8684, "ARG_OF_PERICENTER": 276.938, "MEAN_ANOMALY": 200.1084, "EPHEMERIS_TYPE": 0, "CLASSIFICATION_TYPE": "U", "NORAD_CAT_ID": 66523, "ELEMENT_SET_NO": 999, "REV_AT_EPOCH": 334, "BSTAR": -0.00022396, "MEAN_MOTION_DOT": -0.00034768, "MEAN_MOTION_DDOT": 0}, "tle": {"line1": "1 66523U 25265H   25336.50006943 -.00034768  00000+0 -22396-3 0  9992", "line2": "2 66523  42.9991 114.8684 0001463 276.9380 200.1084 15.75059406  3346"}}, "geometry": {"type": "Point", "coordinates": [91.9576738190032, -17.66531138351642]}}, {"type": "Feature", "properties": {"norad_id": 66524, "name": "STARLINK-35687", "group": "last-30-days", "lat": -16.433113438751196, "lon": 93.48462817642732, "alt_km": 345.61446998885003, "timestamp": "2025-12-02T23:34:14.291318+00:00", "meta": {"OBJECT_NAME": "STARLINK-35687", "OBJECT_ID": "2025-265J", "EPOCH": "2025-12-02T12:00:05.998752", "MEAN_MOTION": 15.75052847, "ECCENTRICITY": 0.0001601, "INCLINATION": 42.9991, "RA_OF_ASC_NODE": 114.8631, "ARG_OF_PERICENTER": 272.55, "MEAN_ANOMALY": 206.4083, "EPHEMERIS_TYPE": 0, "CLASSIFICATION_TYPE": "U", "NORAD_CAT_ID": 66524, "ELEMENT_SET_NO": 999, "REV_AT_EPOCH": 334, "BSTAR": -0.000127, "MEAN_MOTION_DOT": -0.00019951, "MEAN_MOTION_DDOT": 0}, "tle": {"line1": "1 66524U 25265J   25336.50006943 -.00019951  00000+0 -12700-3 0  9998", "line2": "2 66524  42.9991 114.8631 0001601 272.5500 206.4083 15.75052847  3349"}}, "geometry": {"type": "Point", "coordinates": [93.48462817642732, -16.433113438751196]}}, {"type": "Feature", "properties": {"norad_id": 66525, "name": "STARLINK-35975", "group": "last-30-days", "lat": -15.190426490230523, "lon": 94.99260623395074, "alt_km": 345.7360277702228, "timestamp": "2025-12-02T23:34:14.291330+00:00", "meta": {"OBJECT_NAME": "STARLINK-35975", "OBJECT_ID": "2025-265K", "EPOCH": "2025-12-02T12:00:05.998752", "MEAN_MOTION": 15.75043787, "ECCENTRICITY": 0.0001456, "INCLINATION": 42.9991, "RA_OF_ASC_NODE": 114.8588, "ARG_OF_PERICENTER": 261.5507, "MEAN_ANOMALY": 219.3266, "EPHEMERIS_TYPE": 0, "CLASSIFICATION_TYPE": "U", "NORAD_CAT_ID": 66525, "ELEMENT_SET_NO": 999, "REV_AT_EPOCH": 334, "BSTAR": -4.0119e-05, "MEAN_MOTION_DOT": -6.636e-05, "MEAN_MOTION_DDOT": 0}, "tle": {"line1": "1 66525U 25265K   25336.50006943 -.00006636  00000+0 -40119-4 0  9991", "line2": "2 66525  42.9991 114.8588 0001456 261.5507 219.3266 15.75043787  3343"}}, "geometry": {"type": "Point", "coordinates": [94.99260623395074, -15.190426490230523]}}, {"type": "Feature", "properties": {"norad_id": 66526, "name": "STARLINK-35932", "group": "last-30-days", "lat": -13.930616302837484, "lon": 96.49077053689203, "alt_km": 345.4666791033287, "timestamp": "2025-12-02T23:34:14.291342+00:00", "meta": {"OBJECT_NAME": "STARLINK-35932", "OBJECT_ID": "2025-265L", "EPOCH": "2025-12-02T12:00:05.998752", "MEAN_MOTION": 15.75045376, "ECCENTRICITY": 0.0001606, "INCLINATION": 42.9992, "RA_OF_ASC_NODE": 114.854, "ARG_OF_PERICENTER": 267.726, "MEAN_ANOMALY": 215.062, "EPHEMERIS_TYPE": 0, "CLASSIFICATION_TYPE": "U", "NORAD_CAT_ID": 66526, "ELEMENT_SET_NO": 999, "REV_AT_EPOCH": 324, "BSTAR": 4.3026e-05, "MEAN_MOTION_DOT": 6.138e-05, "MEAN_MOTION_DDOT": 0}, "tle": {"line1": "1 66526U 25265L   25336.50006943  .00006138  00000+0  43026-4 0  9997", "line2": "2 66526  42.9992 114.8540 0001606 267.7260 215.0620 15.75045376  3246"}}, "geometry": {"type": "Point", "coordinates": [96.49077053689203, -13.930616302837484]}}]}